start=new Date('2022-02-14T00:00:00.000Z').valueOf();
sats=[{"RCS_SIZE":"LARGE","LAUNCH_DATE":"2020-01-07","CENTER_NAME":"EARTH","MEAN_ELEMENT_THEORY":"SGP4","TLE_LINE1":"1 44929U 20001R   22044.58103224 -.00001701  00000-0 -95400-4 0  9991","PERIOD":"95.593","SITE":"AFETR","OBJECT_ID":"2020-001R","FILE":"3299685","MEAN_MOTION":"15.06383229","COUNTRY_CODE":"US","NORAD_CAT_ID":"44929","INCLINATION":"53.0535","SEMIMAJOR_AXIS":"6925.400","RA_OF_ASC_NODE":"173.5207","ELEMENT_SET_NO":"999","DECAY_DATE":null,"BSTAR":"-0.00009540000000","EPOCH":"2022-02-13T13:56:41.185536","ECCENTRICITY":"0.00014470","GP_ID":"195890990","TIME_SYSTEM":"UTC","CLASSIFICATION_TYPE":"U","REF_FRAME":"TEME","TLE_LINE2":"2 44929  53.0535 173.5207 0001447  70.4904 289.6241 15.06383229116005","ARG_OF_PERICENTER":"70.4904","EPHEMERIS_TYPE":"0","REV_AT_EPOCH":"11600","PERIAPSIS":"546.263","APOAPSIS":"548.267","OBJECT_NAME":"STARLINK-1121","MEAN_MOTION_DDOT":"0.0000000000000","MEAN_MOTION_DOT":"-0.00001701","MEAN_ANOMALY":"289.6241","OBJECT_TYPE":"PAYLOAD"},{"REF_FRAME":"TEME","ARG_OF_PERICENTER":"73.8704","EPHEMERIS_TYPE":"0","TLE_LINE2":"2 44930  53.0533 173.0813 0001519  73.8704 286.2452 15.06385725116020","REV_AT_EPOCH":"11602","PERIAPSIS":"546.205","APOAPSIS":"548.309","OBJECT_NAME":"STARLINK-1123","MEAN_MOTION_DDOT":"0.0000000000000","MEAN_ANOMALY":"286.2452","MEAN_MOTION_DOT":"-0.00001621","OBJECT_TYPE":"PAYLOAD","RCS_SIZE":"LARGE","MEAN_ELEMENT_THEORY":"SGP4","TLE_LINE1":"1 44930U 20001S   22044.68055141 -.00001621  00000-0 -90005-4 0  9995","CENTER_NAME":"EARTH","LAUNCH_DATE":"2020-01-07","SITE":"AFETR","OBJECT_ID":"2020-001S","PERIOD":"95.593","COUNTRY_CODE":"US","NORAD_CAT_ID":"44930","MEAN_MOTION":"15.06385725","FILE":"3299848","SEMIMAJOR_AXIS":"6925.392","ELEMENT_SET_NO":"999","RA_OF_ASC_NODE":"173.0813","INCLINATION":"53.0533","DECAY_DATE":null,"GP_ID":"195901006","ECCENTRICITY":"0.00015190","BSTAR":"-0.00009000500000","EPOCH":"2022-02-13T16:19:59.641824","TIME_SYSTEM":"UTC","CLASSIFICATION_TYPE":"U"},{"TLE_LINE2":"2 44931  53.0516 171.8399 0002335 130.8214 229.2979 15.10215102116773","EPHEMERIS_TYPE":"0","ARG_OF_PERICENTER":"130.8214","REF_FRAME":"TEME","REV_AT_EPOCH":"11677","PERIAPSIS":"533.931","OBJECT_NAME":"STARLINK-1128","APOAPSIS":"537.160","OBJECT_TYPE":"PAYLOAD","MEAN_ANOMALY":"229.2979","MEAN_MOTION_DDOT":"0.0000000000000","MEAN_MOTION_DOT":"0.00012419","CENTER_NAME":"EARTH","LAUNCH_DATE":"2020-01-07","MEAN_ELEMENT_THEORY":"SGP4","TLE_LINE1":"1 44931U 20001T   22044.55242768  .00012419  00000-0  76762-3 0  9993","RCS_SIZE":"LARGE","FILE":"3299685","COUNTRY_CODE":"US","MEAN_MOTION":"15.10215102","NORAD_CAT_ID":"44931","PERIOD":"95.351","OBJECT_ID":"2020-001T","SITE":"AFETR","DECAY_DATE":null,"INCLINATION":"53.0516","SEMIMAJOR_AXIS":"6913.680","RA_OF_ASC_NODE":"171.8399","ELEMENT_SET_NO":"999","CLASSIFICATION_TYPE":"U","TIME_SYSTEM":"UTC","EPOCH":"2022-02-13T13:15:29.751552","BSTAR":"0.00076762000000","ECCENTRICITY":"0.00023350","GP_ID":"195892478"},{"REV_AT_EPOCH":"11726","PERIAPSIS":"546.280","REF_FRAME":"TEME","TLE_LINE2":"2 44932  53.0537 172.8398 0001382  71.7573 288.3566 15.06392344117261","ARG_OF_PERICENTER":"71.7573","EPHEMERIS_TYPE":"0","MEAN_MOTION_DOT":"-0.00001358","MEAN_MOTION_DDOT":"0.0000000000000","MEAN_ANOMALY":"288.3566","OBJECT_TYPE":"PAYLOAD","APOAPSIS":"548.194","OBJECT_NAME":"STARLINK-1130","PERIOD":"95.593","SITE":"AFETR","OBJECT_ID":"2020-001U","FILE":"3299848","NORAD_CAT_ID":"44932","COUNTRY_CODE":"US","MEAN_MOTION":"15.06392344","RCS_SIZE":"LARGE","CENTER_NAME":"EARTH","LAUNCH_DATE":"2020-01-07","MEAN_ELEMENT_THEORY":"SGP4","TLE_LINE1":"1 44932U 20001U   22044.73583779 -.00001358  00000-0 -72329-4 0  9992","BSTAR":"-0.00007232900000","EPOCH":"2022-02-13T17:39:36.385056","GP_ID":"195901011","ECCENTRICITY":"0.00013820","TIME_SYSTEM":"UTC","CLASSIFICATION_TYPE":"U","INCLINATION":"53.0537","SEMIMAJOR_AXIS":"6925.372","ELEMENT_SET_NO":"999","RA_OF_ASC_NODE":"172.8398","DECAY_DATE":null},{"LAUNCH_DATE":"2020-01-07","CENTER_NAME":"EARTH","MEAN_ELEMENT_THEORY":"SGP4","TLE_LINE1":"1 44933U 20001V   22044.56259304 -.00004973  00000-0 -31533-3 0  9995","RCS_SIZE":"LARGE","FILE":"3299685","MEAN_MOTION":"15.06381949","COUNTRY_CODE":"US","NORAD_CAT_ID":"44933","PERIOD":"95.593","OBJECT_ID":"2020-001V","SITE":"AFETR","DECAY_DATE":null,"INCLINATION":"53.0534","SEMIMAJOR_AXIS":"6925.404","RA_OF_ASC_NODE":"173.6180","ELEMENT_SET_NO":"999","CLASSIFICATION_TYPE":"U","TIME_SYSTEM":"UTC","EPOCH":"2022-02-13T13:30:08.038656","BSTAR":"-0.00031533000000","ECCENTRICITY":"0.00013220","GP_ID":"195891490","TLE_LINE2":"2 44933  53.0534 173.6180 0001322  79.0367 281.0771 15.06381949117293","EPHEMERIS_TYPE":"0","ARG_OF_PERICENTER":"79.0367","REF_FRAME":"TEME","REV_AT_EPOCH":"11729","PERIAPSIS":"546.353","OBJECT_NAME":"STARLINK-1144","APOAPSIS":"548.184","OBJECT_TYPE":"PAYLOAD","MEAN_MOTION_DDOT":"0.0000000000000","MEAN_MOTION_DOT":"-0.00004973","MEAN_ANOMALY":"281.0771"},{"PERIAPSIS":"546.304","REV_AT_EPOCH":"11628","TLE_LINE2":"2 44934  53.0543 153.5568 0001399  86.4705 273.6443 15.06380502116288","EPHEMERIS_TYPE":"0","ARG_OF_PERICENTER":"86.4705","REF_FRAME":"TEME","OBJECT_TYPE":"PAYLOAD","MEAN_MOTION_DDOT":"0.0000000000000","MEAN_ANOMALY":"273.6443","MEAN_MOTION_DOT":"-0.00002955","OBJECT_NAME":"STARLINK-1071","APOAPSIS":"548.242","FILE":"3299685","COUNTRY_CODE":"US","MEAN_MOTION":"15.06380502","NORAD_CAT_ID":"44934","PERIOD":"95.593","OBJECT_ID":"2020-001W","SITE":"AFETR","CENTER_NAME":"EARTH","LAUNCH_DATE":"2020-01-07","TLE_LINE1":"1 44934U 20001W   22044.57550504 -.00002955  00000-0 -17965-3 0  9994","MEAN_ELEMENT_THEORY":"SGP4","RCS_SIZE":"LARGE","CLASSIFICATION_TYPE":"U","TIME_SYSTEM":"UTC","EPOCH":"2022-02-13T13:48:43.635456","BSTAR":"-0.00017965000000","ECCENTRICITY":"0.00013990","GP_ID":"195891740","DECAY_DATE":null,"INCLINATION":"53.0543","SEMIMAJOR_AXIS":"6925.408","ELEMENT_SET_NO":"999","RA_OF_ASC_NODE":"153.5568"},{"OBJECT_TYPE":"PAYLOAD","MEAN_ANOMALY":"281.4195","MEAN_MOTION_DDOT":"0.0000000000000","MEAN_MOTION_DOT":"0.00005733","OBJECT_NAME":"STARLINK-1079","APOAPSIS":"548.257","PERIAPSIS":"546.271","REV_AT_EPOCH":"11628","EPHEMERIS_TYPE":"0","ARG_OF_PERICENTER":"78.6955","TLE_LINE2":"2 44937  53.0524 153.6579 0001434  78.6955 281.4195 15.06383609116285","REF_FRAME":"TEME","CLASSIFICATION_TYPE":"U","TIME_SYSTEM":"UTC","GP_ID":"195891979","ECCENTRICITY":"0.00014340","EPOCH":"2022-02-13T13:16:51.733056","BSTAR":"0.00040365000000","DECAY_DATE":null,"SEMIMAJOR_AXIS":"6925.399","RA_OF_ASC_NODE":"153.6579","ELEMENT_SET_NO":"999","INCLINATION":"53.0524","COUNTRY_CODE":"US","MEAN_MOTION":"15.06383609","NORAD_CAT_ID":"44937","FILE":"3299685","OBJECT_ID":"2020-001Z","SITE":"AFETR","PERIOD":"95.593","TLE_LINE1":"1 44937U 20001Z   22044.55337654  .00005733  00000-0  40365-3 0  9999","MEAN_ELEMENT_THEORY":"SGP4","LAUNCH_DATE":"2020-01-07","CENTER_NAME":"EARTH","RCS_SIZE":"LARGE"},{"SITE":"AFETR","OBJECT_ID":"2020-001AA","PERIOD":"95.593","COUNTRY_CODE":"US","NORAD_CAT_ID":"44938","MEAN_MOTION":"15.06392428","FILE":"3299685","RCS_SIZE":"LARGE","MEAN_ELEMENT_THEORY":"SGP4","TLE_LINE1":"1 44938U 20001AA  22044.58655381 -.00002421  00000-0 -14369-3 0  9991","CENTER_NAME":"EARTH","LAUNCH_DATE":"2020-01-07","ECCENTRICITY":"0.00016010","GP_ID":"195892729","BSTAR":"-0.00014369000000","EPOCH":"2022-02-13T14:04:38.249184","TIME_SYSTEM":"UTC","CLASSIFICATION_TYPE":"U","ELEMENT_SET_NO":"999","SEMIMAJOR_AXIS":"6925.372","RA_OF_ASC_NODE":"153.5071","INCLINATION":"53.0547","DECAY_DATE":null,"REV_AT_EPOCH":"11628","PERIAPSIS":"546.128","REF_FRAME":"TEME","ARG_OF_PERICENTER":"57.2779","EPHEMERIS_TYPE":"0","TLE_LINE2":"2 44938  53.0547 153.5071 0001601  57.2779 302.8364 15.06392428116285","MEAN_MOTION_DOT":"-0.00002421","MEAN_MOTION_DDOT":"0.0000000000000","MEAN_ANOMALY":"302.8364","OBJECT_TYPE":"PAYLOAD","APOAPSIS":"548.346","OBJECT_NAME":"STARLINK-1082"},{"MEAN_MOTION_DOT":"-0.00000315","MEAN_MOTION_DDOT":"0.0000000000000","MEAN_ANOMALY":"296.0033","OBJECT_TYPE":"PAYLOAD","APOAPSIS":"548.216","OBJECT_NAME":"STARLINK-1083","PERIAPSIS":"546.245","REV_AT_EPOCH":"11631","REF_FRAME":"TEME","ARG_OF_PERICENTER":"64.1102","EPHEMERIS_TYPE":"0","TLE_LINE2":"2 44939  53.0530 152.5810 0001423  64.1102 296.0033 15.06394351116315","GP_ID":"195901450","ECCENTRICITY":"0.00014230","BSTAR":"-0.00000227350000","EPOCH":"2022-02-13T19:01:51.483072","TIME_SYSTEM":"UTC","CLASSIFICATION_TYPE":"U","RA_OF_ASC_NODE":"152.5810","SEMIMAJOR_AXIS":"6925.366","ELEMENT_SET_NO":"999","INCLINATION":"53.0530","DECAY_DATE":null,"SITE":"AFETR","OBJECT_ID":"2020-001AB","PERIOD":"95.592","COUNTRY_CODE":"US","MEAN_MOTION":"15.06394351","NORAD_CAT_ID":"44939","FILE":"3299844","RCS_SIZE":"LARGE","TLE_LINE1":"1 44939U 20001AB  22044.79295698 -.00000315  00000-0 -22735-5 0  9994","MEAN_ELEMENT_THEORY":"SGP4","LAUNCH_DATE":"2020-01-07","CENTER_NAME":"EARTH"},{"ARG_OF_PERICENTER":"79.0287","EPHEMERIS_TYPE":"0","TLE_LINE2":"2 44940  53.0549 153.7199 0001343  79.0287 281.0853 15.06381035116274","REF_FRAME":"TEME","PERIAPSIS":"546.342","REV_AT_EPOCH":"11627","OBJECT_NAME":"STARLINK-1091","APOAPSIS":"548.202","OBJECT_TYPE":"PAYLOAD","MEAN_MOTION_DDOT":"0.0000000000000","MEAN_ANOMALY":"281.0853","MEAN_MOTION_DOT":"-0.00002910","TLE_LINE1":"1 44940U 20001AC  22044.53864606 -.00002910  00000-0 -17663-3 0  9994","MEAN_ELEMENT_THEORY":"SGP4","LAUNCH_DATE":"2020-01-07","CENTER_NAME":"EARTH","RCS_SIZE":"LARGE","NORAD_CAT_ID":"44940","COUNTRY_CODE":"US","MEAN_MOTION":"15.06381035","FILE":"3299685","SITE":"AFETR","OBJECT_ID":"2020-001AC","PERIOD":"95.593","DECAY_DATE":null,"SEMIMAJOR_AXIS":"6925.407","ELEMENT_SET_NO":"999","RA_OF_ASC_NODE":"153.7199","INCLINATION":"53.0549","TIME_SYSTEM":"UTC","CLASSIFICATION_TYPE":"U","ECCENTRICITY":"0.00013430","GP_ID":"195891241","BSTAR":"-0.00017663000000","EPOCH":"2022-02-13T12:55:39.019584"}];
